{
  "type": "FeatureCollection",
  "features": [
    {
      "type": "Feature",
      "properties": {
        "norad_id": 66549,
        "name": "SHIJIAN-28 (SJ-28)",
        "group": "last-30-days",
        "lat": 3.880924698485646,
        "lon": -34.01648082613352,
        "alt_km": 35786.61783561049,
        "timestamp": "2025-12-24T07:45:04.929875+00:00",
        "meta_object_name": "SHIJIAN-28 (SJ-28)",
        "meta_object_id": "2025-277A",
        "meta_epoch": "2025-12-23T18:49:26.581152",
        "meta_mean_motion": 1.00265987,
        "meta_eccentricity": 0.0001017,
        "meta_inclination": 4.9916,
        "meta_ra_of_asc_node": 274.783,
        "meta_arg_of_pericenter": 131.9784,
        "meta_mean_anomaly": 84.9264,
        "meta_ephemeris_type": 0,
        "meta_classification_type": "U",
        "meta_norad_cat_id": 66549,
        "meta_element_set_no": 999,
        "meta_rev_at_epoch": 39,
        "meta_bstar": 0,
        "meta_mean_motion_dot": -3.37e-06,
        "meta_mean_motion_ddot": 0,
        "tle_line1": "1 66549U 25277A   25357.78433543 -.00000337  00000+0  00000+0 0  9994",
        "tle_line2": "2 66549   4.9916 274.7830 0001017 131.9784  84.9264  1.00265987   397"
      },
      "geometry": {
        "type": "Point",
        "coordinates": [
          -34.01648082613352,
          3.880924698485646
        ]
      }
    },
    {
      "type": "Feature",
      "properties": {
        "norad_id": 66550,
        "name": "CZ-7A R/B",
        "group": "last-30-days",
        "lat": 9.304268235287394,
        "lon": 43.39662055887608,
        "alt_km": 1866.2062634457334,
        "timestamp": "2025-12-24T07:45:04.929927+00:00",
        "meta_object_name": "CZ-7A R/B",
        "meta_object_id": "2025-277B",
        "meta_epoch": "2025-12-23T05:53:12.433056",
        "meta_mean_motion": 3.27661077,
        "meta_eccentricity": 0.66094342,
        "meta_inclination": 14.3426,
        "meta_ra_of_asc_node": 263.9223,
        "meta_arg_of_pericenter": 200.4471,
        "meta_mean_anomaly": 110.5172,
        "meta_ephemeris_type": 0,
        "meta_classification_type": "U",
        "meta_norad_cat_id": 66550,
        "meta_element_set_no": 999,
        "meta_rev_at_epoch": 65,
        "meta_bstar": 0.0068493476,
        "meta_mean_motion_dot": 0.10979967,
        "meta_mean_motion_ddot": 1.8894821e-05,
        "tle_line1": "1 66550U 25277B   25357.24528279  .10979967  18895-4  68493-2 0  9991",
        "tle_line2": "2 66550  14.3426 263.9223 6609434 200.4471 110.5172  3.27661077   658"
      },
      "geometry": {
        "type": "Point",
        "coordinates": [
          43.39662055887608,
          9.304268235287394
        ]
      }
    },
    {
      "type": "Feature",
      "properties": {
        "norad_id": 66554,
        "name": "GLOBAL-33",
        "group": "last-30-days",
        "lat": -39.454308982771316,
        "lon": -75.94447337714756,
        "alt_km": 475.11547649539807,
        "timestamp": "2025-12-24T07:45:04.929955+00:00",
        "meta_object_name": "GLOBAL-33",
        "meta_object_id": "2025-267A",
        "meta_epoch": "2025-12-23T22:40:26.978016",
        "meta_mean_motion": 15.31714387,
        "meta_eccentricity": 0.0004481,
        "meta_inclination": 42.0211,
        "meta_ra_of_asc_node": 352.304,
        "meta_arg_of_pericenter": 170.013,
        "meta_mean_anomaly": 190.0798,
        "meta_ephemeris_type": 0,
        "meta_classification_type": "U",
        "meta_norad_cat_id": 66554,
        "meta_element_set_no": 999,
        "meta_rev_at_epoch": 512,
        "meta_bstar": 0.00043448475,
        "meta_mean_motion_dot": 0.00013368,
        "meta_mean_motion_ddot": 0,
        "tle_line1": "1 66554U 25267A   25357.94475669  .00013368  00000+0  43448-3 0  9996",
        "tle_line2": "2 66554  42.0211 352.3040 0004481 170.0130 190.0798 15.31714387  5126"
      },
      "geometry": {
        "type": "Point",
        "coordinates": [
          -75.94447337714756,
          -39.454308982771316
        ]
      }
    },
    {
      "type": "Feature",
      "properties": {
        "norad_id": 66557,
        "name": "STARLINK-35699",
        "group": "last-30-days",
        "lat": 38.005741642784486,
        "lon": 110.37823564123266,
        "alt_km": 428.7522883880565,
        "timestamp": "2025-12-24T07:45:04.929969+00:00",
        "meta_object_name": "STARLINK-35699",
        "meta_object_id": "2025-268A",
        "meta_epoch": "2025-12-24T00:00:00.999648",
        "meta_mean_motion": 15.45704467,
        "meta_eccentricity": 0.00016312,
        "meta_inclination": 43.0004,
        "meta_ra_of_asc_node": 55.2608,
        "meta_arg_of_pericenter": 281.4437,
        "meta_mean_anomaly": 144.7751,
        "meta_ephemeris_type": 0,
        "meta_classification_type": "U",
        "meta_norad_cat_id": 66557,
        "meta_element_set_no": 999,
        "meta_rev_at_epoch": 610,
        "meta_bstar": -0.049085189,
        "meta_mean_motion_dot": -0.021466,
        "meta_mean_motion_ddot": 0,
        "tle_line1": "1 66557U 25268A   25358.00001157 -.02146600  00000+0 -49085-1 0  9996",
        "tle_line2": "2 66557  43.0004  55.2608 0001631 281.4437 144.7751 15.45704467  6107"
      },
      "geometry": {
        "type": "Point",
        "coordinates": [
          110.37823564123266,
          38.005741642784486
        ]
      }
    },
    {
      "type": "Feature",
      "properties": {
        "norad_id": 66558,
        "name": "STARLINK-35695",
        "group": "last-30-days",
        "lat": 41.035860134077716,
        "lon": 122.43351205303009,
        "alt_km": 425.7993377793391,
        "timestamp": "2025-12-24T07:45:04.929980+00:00",
        "meta_object_name": "STARLINK-35695",
        "meta_object_id": "2025-268B",
        "meta_epoch": "2025-12-24T00:00:00.999648",
        "meta_mean_motion": 15.46485002,
        "meta_eccentricity": 0.00014273,
        "meta_inclination": 43.0006,
        "meta_ra_of_asc_node": 55.2389,
        "meta_arg_of_pericenter": 274.2254,
        "meta_mean_anomaly": 160.8159,
        "meta_ephemeris_type": 0,
        "meta_classification_type": "U",
        "meta_norad_cat_id": 66558,
        "meta_element_set_no": 999,
        "meta_rev_at_epoch": 610,
        "meta_bstar": -0.045089911,
        "meta_mean_motion_dot": -0.02039341,
        "meta_mean_motion_ddot": 0,
        "tle_line1": "1 66558U 25268B   25358.00001157 -.02039341  00000+0 -45090-1 0  9992",
        "tle_line2": "2 66558  43.0006  55.2389 0001427 274.2254 160.8159 15.46485002  6109"
      },
      "geometry": {
        "type": "Point",
        "coordinates": [
          122.43351205303009,
          41.035860134077716
        ]
      }
    },
    {
      "type": "Feature",
      "properties": {
        "norad_id": 66559,
        "name": "STARLINK-35419",
        "group": "last-30-days",
        "lat": 39.03578394176038,
        "lon": 172.8000190803297,
        "alt_km": 411.085924269697,
        "timestamp": "2025-12-24T07:45:04.929992+00:00",
        "meta_object_name": "STARLINK-35419",
        "meta_object_id": "2025-268C",
        "meta_epoch": "2025-12-24T00:00:00.999648",
        "meta_mean_motion": 15.51623628,
        "meta_eccentricity": 0.00013768,
        "meta_inclination": 43.0004,
        "meta_ra_of_asc_node": 55.1614,
        "meta_arg_of_pericenter": 278.1217,
        "meta_mean_anomaly": 189.0311,
        "meta_ephemeris_type": 0,
        "meta_classification_type": "U",
        "meta_norad_cat_id": 66559,
        "meta_element_set_no": 999,
        "meta_rev_at_epoch": 610,
        "meta_bstar": -0.037782747,
        "meta_mean_motion_dot": -0.02050025,
        "meta_mean_motion_ddot": 0,
        "tle_line1": "1 66559U 25268C   25358.00001157 -.02050025  00000+0 -37783-1 0  9995",
        "tle_line2": "2 66559  43.0004  55.1614 0001376 278.1217 189.0311 15.51623628  6100"
      },
      "geometry": {
        "type": "Point",
        "coordinates": [
          172.8000190803297,
          39.03578394176038
        ]
      }
    },
    {
      "type": "Feature",
      "properties": {
        "norad_id": 66560,
        "name": "STARLINK-35411",
        "group": "last-30-days",
        "lat": 37.41635545438782,
        "lon": 178.08239438553449,
        "alt_km": 409.80259932820263,
        "timestamp": "2025-12-24T07:45:04.930029+00:00",
        "meta_object_name": "STARLINK-35411",
        "meta_object_id": "2025-268D",
        "meta_epoch": "2025-12-24T00:00:00.999648",
        "meta_mean_motion": 15.52142228,
        "meta_eccentricity": 0.00014153,
        "meta_inclination": 43.0011,
        "meta_ra_of_asc_node": 55.1521,
        "meta_arg_of_pericenter": 283.4406,
        "meta_mean_anomaly": 187.5522,
        "meta_ephemeris_type": 0,
        "meta_classification_type": "U",
        "meta_norad_cat_id": 66560,
        "meta_element_set_no": 999,
        "meta_rev_at_epoch": 610,
        "meta_bstar": -0.036609925,
        "meta_mean_motion_dot": -0.02026937,
        "meta_mean_motion_ddot": 0,
        "tle_line1": "1 66560U 25268D   25358.00001157 -.02026937  00000+0 -36610-1 0  9990",
        "tle_line2": "2 66560  43.0011  55.1521 0001415 283.4406 187.5522 15.52142228  6100"
      },
      "geometry": {
        "type": "Point",
        "coordinates": [
          178.08239438553449,
          37.41635545438782
        ]
      }
    }
  ]
}